{"type": "FeatureCollection", "features": [ {"type": "Feature", "properties": {"norad_id": 40701, "name": "GAOFEN-8", "group": "resource", "lat": -48.24649087240185, "lon": -174.65805823087305, "alt_km": 462.7334995615365, "timestamp": "2025-12-23T22:42:32.635320+00:00", "meta": {"OBJECT_NAME": "GAOFEN-8", "OBJECT_ID": "2015-030A", "EPOCH": "2025-12-23T07:18:56.678688", "MEAN_MOTION": 15.38878365, "ECCENTRICITY": 0.00114141, "INCLINATION": 97.6906, "RA_OF_ASC_NODE": 175.9619, "ARG_OF_PERICENTER": 102.1884, "MEAN_ANOMALY": 258.064, "EPHEMERIS_TYPE": 0, "CLASSIFICATION_TYPE": "U", "NORAD_CAT_ID": 40701, "ELEMENT_SET_NO": 999, "REV_AT_EPOCH": 58433, "BSTAR": 0.0016695939, "MEAN_MOTION_DOT": 0.00064729, "MEAN_MOTION_DDOT": 0}, "tle": {"line1": "1 40701U 15030A   25357.30482267  .00064729  00000+0  16696-2 0  9992", "line2": "2 40701  97.6906 175.9619 0011414 102.1884 258.0640 15.38878365584336"}}, "geometry": {"type": "Point", "coordinates": [-174.65805823087305, -48.24649087240185]}}, {"type": "Feature", "properties": {"norad_id": 40718, "name": "CARBONITE 1 (CBNT-1)", "group": "resource", "lat": 31.191967629530037, "lon": 3.1577581351418593, "alt_km": 608.2422810929174, "timestamp": "2025-12-23T22:42:32.635330+00:00", "meta": {"OBJECT_NAME": "CARBONITE 1 (CBNT-1)", "OBJECT_ID": "2015-032D", "EPOCH": "2025-12-23T07:27:58.843008", "MEAN_MOTION": 14.82786865, "ECCENTRICITY": 0.00151797, "INCLINATION": 97.6398, "RA_OF_ASC_NODE": 177.8896, "ARG_OF_PERICENTER": 147.4121, "MEAN_ANOMALY": 212.8033, "EPHEMERIS_TYPE": 0, "CLASSIFICATION_TYPE": "U", "NORAD_CAT_ID": 40718, "ELEMENT_SET_NO": 999, "REV_AT_EPOCH": 56327, "BSTAR": 0.00013872408, "MEAN_MOTION_DOT": 1.073e-05, "MEAN_MOTION_DDOT": 0}, "tle": {"line1": "1 40718U 15032D   25357.31109772  .00001073  00000+0  13872-3 0  9997", "line2": "2 40718  97.6398 177.8896 0015179 147.4121 212.8033 14.82786865563270"}}, "geometry": {"type": "Point", "coordinates": [3.1577581351418593, 31.191967629530037]}}, {"type": "Feature", "properties": {"norad_id": 40878, "name": "YAOGAN-27", "group": "resource", "lat": -27.562775247055757, "lon": -7.602412879866651, "alt_km": 1203.6916630068254, "timestamp": "2025-12-23T22:42:32.635341+00:00", "meta": {"OBJECT_NAME": "YAOGAN-27", "OBJECT_ID": "2015-040A", "EPOCH": "2025-12-23T06:25:50.096352", "MEAN_MOTION": 13.16061314, "ECCENTRICITY": 0.00075626, "INCLINATION": 100.1011, "RA_OF_ASC_NODE": 346.4116, "ARG_OF_PERICENTER": 260.5734, "MEAN_ANOMALY": 99.4525, "EPHEMERIS_TYPE": 0, "CLASSIFICATION_TYPE": "U", "NORAD_CAT_ID": 40878, "ELEMENT_SET_NO": 999, "REV_AT_EPOCH": 49452, "BSTAR": 0.00097034881, "MEAN_MOTION_DOT": 3.26e-06, "MEAN_MOTION_DDOT": 0}, "tle": {"line1": "1 40878U 15040A   25357.26794093  .00000326  00000+0  97035-3 0  9996", "line2": "2 40878 100.1011 346.4116 0007562 260.5734  99.4525 13.16061314494529"}}, "geometry": {"type": "Point", "coordinates": [-7.602412879866651, -27.562775247055757]}}, {"type": "Feature", "properties": {"norad_id": 40894, "name": "GAOFEN-9 01", "group": "resource", "lat": 55.23282600801916, "lon": 25.248378295481142, "alt_km": 606.1039440117329, "timestamp": "2025-12-23T22:42:32.635351+00:00", "meta": {"OBJECT_NAME": "GAOFEN-9 01", "OBJECT_ID": "2015-047A", "EPOCH": "2025-12-23T06:15:33.246144", "MEAN_MOTION": 14.82446812, "ECCENTRICITY": 0.00275305, "INCLINATION": 97.6529, "RA_OF_ASC_NODE": 35.7613, "ARG_OF_PERICENTER": 0.353, "MEAN_ANOMALY": 359.7698, "EPHEMERIS_TYPE": 0, "CLASSIFICATION_TYPE": "U", "NORAD_CAT_ID": 40894, "ELEMENT_SET_NO": 999, "REV_AT_EPOCH": 55412, "BSTAR": 0.00013384315, "MEAN_MOTION_DOT": 1.029e-05, "MEAN_MOTION_DDOT": 0}, "tle": {"line1": "1 40894U 15047A   25357.26080146  .00001029  00000+0  13384-3 0  9994", "line2": "2 40894  97.6529  35.7613 0027530   0.3530 359.7698 14.82446812554122"}}, "geometry": {"type": "Point", "coordinates": [25.248378295481142, 55.23282600801916]}}, {"type": "Feature", "properties": {"norad_id": 41026, "name": "YAOGAN-28", "group": "resource", "lat": 78.41659923331463, "lon": -5.979931368843059, "alt_km": 476.31663626991576, "timestamp": "2025-12-23T22:42:32.635362+00:00", "meta": {"OBJECT_NAME": "YAOGAN-28", "OBJECT_ID": "2015-064A", "EPOCH": "2025-12-23T08:05:58.428384", "MEAN_MOTION": 15.24514125, "ECCENTRICITY": 0.00126555, "INCLINATION": 97.2816, "RA_OF_ASC_NODE": 134.8319, "ARG_OF_PERICENTER": 92.4611, "MEAN_ANOMALY": 267.8076, "EPHEMERIS_TYPE": 0, "CLASSIFICATION_TYPE": "U", "NORAD_CAT_ID": 41026, "ELEMENT_SET_NO": 999, "REV_AT_EPOCH": 56386, "BSTAR": 0.0003486185, "MEAN_MOTION_DOT": 8.525e-05, "MEAN_MOTION_DDOT": 0}, "tle": {"line1": "1 41026U 15064A   25357.33748181  .00008525  00000+0  34862-3 0  9991", "line2": "2 41026  97.2816 134.8319 0012655  92.4611 267.8076 15.24514125563863"}}, "geometry": {"type": "Point", "coordinates": [-5.979931368843059, 78.41659923331463]}}, {"type": "Feature", "properties": {"norad_id": 41038, "name": "YAOGAN-29", "group": "resource", "lat": -37.48177471239651, "lon": 27.360216333274018, "alt_km": 627.0433574279468, "timestamp": "2025-12-23T22:42:32.635372+00:00", "meta": {"OBJECT_NAME": "YAOGAN-29", "OBJECT_ID": "2015-069A", "EPOCH": "2025-12-23T06:41:07.084608", "MEAN_MOTION": 14.82892066, "ECCENTRICITY": 6.821e-05, "INCLINATION": 98.0204, "RA_OF_ASC_NODE": 20.4835, "ARG_OF_PERICENTER": 172.2067, "MEAN_ANOMALY": 187.9157, "EPHEMERIS_TYPE": 0, "CLASSIFICATION_TYPE": "U", "NORAD_CAT_ID": 41038, "ELEMENT_SET_NO": 999, "REV_AT_EPOCH": 54455, "BSTAR": 4.124279e-05, "MEAN_MOTION_DOT": 2.8e-06, "MEAN_MOTION_DDOT": 0}, "tle": {"line1": "1 41038U 15069A   25357.27855422  .00000280  00000+0  41243-4 0  9991", "line2": "2 41038  98.0204  20.4835 0000682 172.2067 187.9157 14.82892066544551"}}, "geometry": {"type": "Point", "coordinates": [27.360216333274018, -37.48177471239651]}}, {"type": "Feature", "properties": {"norad_id": 41167, "name": "KENT RIDGE 1", "group": "resource", "lat": 4.12822511161354, "lon": -67.66970893570931, "alt_km": 500.7308253657484, "timestamp": "2025-12-23T22:42:32.635382+00:00", "meta": {"OBJECT_NAME": "KENT RIDGE 1", "OBJECT_ID": "2015-077B", "EPOCH": "2025-12-22T17:40:34.836384", "MEAN_MOTION": 15.21707626, "ECCENTRICITY": 0.00085399, "INCLINATION": 14.9787, "RA_OF_ASC_NODE": 136.9576, "ARG_OF_PERICENTER": 272.009, "MEAN_ANOMALY": 87.9254, "EPHEMERIS_TYPE": 0, "CLASSIFICATION_TYPE": "U", "NORAD_CAT_ID": 41167, "ELEMENT_SET_NO": 999, "REV_AT_EPOCH": 55416, "BSTAR": 0.00015311914, "MEAN_MOTION_DOT": 4.327e-05, "MEAN_MOTION_DDOT": 0}, "tle": {"line1": "1 41167U 15077B   25356.73651431  .00004327  00000+0  15312-3 0  9990", "line2": "2 41167  14.9787 136.9576 0008539 272.0090  87.9254 15.21707626554162"}}, "geometry": {"type": "Point", "coordinates": [-67.66970893570931, 4.12822511161354]}}, {"type": "Feature", "properties": {"norad_id": 41194, "name": "GAOFEN-4", "group": "resource", "lat": 0.20065532566660788, "lon": 179.0814413265022, "alt_km": 35773.937951508095, "timestamp": "2025-12-23T22:42:32.635395+00:00", "meta": {"OBJECT_NAME": "GAOFEN-4", "OBJECT_ID": "2015-083A", "EPOCH": "2025-12-19T15:27:26.627616", "MEAN_MOTION": 1.00273138, "ECCENTRICITY": 0.0002945, "INCLINATION": 0.1878, "RA_OF_ASC_NODE": 81.7841, "ARG_OF_PERICENTER": 93.4275, "MEAN_ANOMALY": 250.8523, "EPHEMERIS_TYPE": 0, "CLASSIFICATION_TYPE": "U", "NORAD_CAT_ID": 41194, "ELEMENT_SET_NO": 999, "REV_AT_EPOCH": 3672, "BSTAR": 0, "MEAN_MOTION_DOT": -3.11e-06, "MEAN_MOTION_DDOT": 0}, "tle": {"line1": "1 41194U 15083A   25353.64405819 -.00000311  00000+0  00000+0 0  9995", "line2": "2 41194   0.1878  81.7841 0002945  93.4275 250.8523  1.00273138 36722"}}, "geometry": {"type": "Point", "coordinates": [179.0814413265022, 0.20065532566660788]}}, {"type": "Feature", "properties": {"norad_id": 41240, "name": "JASON-3", "group": "resource", "lat": 47.227973956354674, "lon": 162.99087346511504, "alt_km": 1310.2647571242796, "timestamp": "2025-12-23T22:42:32.635406+00:00", "meta": {"OBJECT_NAME": "JASON-3", "OBJECT_ID": "2016-002A", "EPOCH": "2025-12-23T07:31:11.057952", "MEAN_MOTION": 12.87626977, "ECCENTRICITY": 0.00072634, "INCLINATION": 66.0402, "RA_OF_ASC_NODE": 135.5943, "ARG_OF_PERICENTER": 271.3998, "MEAN_ANOMALY": 88.6189, "EPHEMERIS_TYPE": 0, "CLASSIFICATION_TYPE": "U", "NORAD_CAT_ID": 41240, "ELEMENT_SET_NO": 999, "REV_AT_EPOCH": 46460, "BSTAR": 7.7778944e-05, "MEAN_MOTION_DOT": -4.3e-07, "MEAN_MOTION_DDOT": 0}, "tle": {"line1": "1 41240U 16002A   25357.31332243 -.00000043  00000+0  77779-4 0  9991", "line2": "2 41240  66.0402 135.5943 0007263 271.3998  88.6189 12.87626977464603"}}, "geometry": {"type": "Point", "coordinates": [162.99087346511504, 47.227973956354674]}}, {"type": "Feature", "properties": {"norad_id": 41335, "name": "SENTINEL-3A", "group": "resource", "lat": -77.14720393151909, "lon": 104.53105127259934, "alt_km": 810.6171633791528, "timestamp": "2025-12-23T22:42:32.635416+00:00", "meta": {"OBJECT_NAME": "SENTINEL-3A", "OBJECT_ID": "2016-011A", "EPOCH": "2025-12-23T04:34:16.855104", "MEAN_MOTION": 14.26734614, "ECCENTRICITY": 8.946e-05, "INCLINATION": 98.6299, "RA_OF_ASC_NODE": 62.0572, "ARG_OF_PERICENTER": 95.6505, "MEAN_ANOMALY": 264.4778, "EPHEMERIS_TYPE": 0, "CLASSIFICATION_TYPE": "U", "NORAD_CAT_ID": 41335, "ELEMENT_SET_NO": 999, "REV_AT_EPOCH": 51296, "BSTAR": 7.6786741e-05, "MEAN_MOTION_DOT": 1.42e-06, "MEAN_MOTION_DDOT": 0}, "tle": {"line1": "1 41335U 16011A   25357.19047286  .00000142  00000+0  76787-4 0  9999", "line2": "2 41335  98.6299  62.0572 0000894  95.6505 264.4778 14.26734614512963"}}, "geometry": {"type": "Point", "coordinates": [104.53105127259934, -77.14720393151909]}}]}